[Satellite]
VERSION=1.1
NAME=TechnoSat
NICKNAME=TechnoSat
TLE1=1 42829U 17042E   25178.70079084  .00001623  00000-0  12864-3 0  9993
TLE2=2 42829  97.3855 346.5444 0015616 211.2928 148.7370 15.01778432433444
STATUS=0
